start=new Date('2022-01-09T00:00:00.000Z').valueOf();
sats=[{"COUNTRY_CODE":"US","BSTAR":"0.00105420000000","TLE_LINE1":"1 48683U 21044AX  22008.91667824  .00015449  00000-0  10542-2 0  9992","TIME_SYSTEM":"UTC","SEMIMAJOR_AXIS":"6925.394","GP_ID":"193491796","SITE":"AFETR","MEAN_MOTION":"15.06385160","PERIAPSIS":"546.508","NORAD_CAT_ID":"48683","TLE_LINE2":"2 48683  53.0567  58.6232 0001084  90.7978 151.2361 15.06385160  3586","DECAY_DATE":null,"CENTER_NAME":"EARTH","MEAN_MOTION_DDOT":"0.0000000000000","INCLINATION":"53.0567","MEAN_ELEMENT_THEORY":"SGP4","OBJECT_TYPE":"PAYLOAD","REV_AT_EPOCH":"358","MEAN_MOTION_DOT":"0.00015449","LAUNCH_DATE":"2021-05-26","ECCENTRICITY":"0.00010840","RA_OF_ASC_NODE":"58.6232","CLASSIFICATION_TYPE":"U","FILE":"3267514","OBJECT_NAME":"STARLINK-2756","ARG_OF_PERICENTER":"90.7978","OBJECT_ID":"2021-044AX","RCS_SIZE":"LARGE","PERIOD":"95.593","REF_FRAME":"TEME","MEAN_ANOMALY":"151.2361","EPOCH":"2022-01-08T22:00:00.999936","ELEMENT_SET_NO":"999","APOAPSIS":"548.010","EPHEMERIS_TYPE":"0"},{"TLE_LINE2":"2 48684  53.0568  75.6663 0001116  86.5015 273.6101 15.06398049 35818","NORAD_CAT_ID":"48684","PERIAPSIS":"546.447","MEAN_ELEMENT_THEORY":"SGP4","OBJECT_TYPE":"PAYLOAD","MEAN_MOTION_DDOT":"0.0000000000000","INCLINATION":"53.0568","CENTER_NAME":"EARTH","DECAY_DATE":null,"TIME_SYSTEM":"UTC","TLE_LINE1":"1 48684U 21044AY  22008.46341617 -.00000245  00000-0  24579-5 0  9999","BSTAR":"0.00000245790000","COUNTRY_CODE":"US","MEAN_MOTION":"15.06398049","SITE":"AFETR","GP_ID":"193466317","SEMIMAJOR_AXIS":"6925.355","REF_FRAME":"TEME","RCS_SIZE":"LARGE","PERIOD":"95.592","OBJECT_ID":"2021-044AY","ARG_OF_PERICENTER":"86.5015","EPHEMERIS_TYPE":"0","APOAPSIS":"547.992","ELEMENT_SET_NO":"999","EPOCH":"2022-01-08T11:07:19.157088","MEAN_ANOMALY":"273.6101","LAUNCH_DATE":"2021-05-26","REV_AT_EPOCH":"3581","MEAN_MOTION_DOT":"-0.00000245","OBJECT_NAME":"STARLINK-2741","FILE":"3267358","CLASSIFICATION_TYPE":"U","RA_OF_ASC_NODE":"75.6663","ECCENTRICITY":"0.00011160"},{"COUNTRY_CODE":"US","TIME_SYSTEM":"UTC","BSTAR":"0.00100920000000","TLE_LINE1":"1 48685U 21044AZ  22008.91667824  .00014776  00000-0  10092-2 0  9996","SITE":"AFETR","GP_ID":"193492798","SEMIMAJOR_AXIS":"6925.398","MEAN_MOTION":"15.06383747","PERIAPSIS":"546.504","TLE_LINE2":"2 48685  53.0551  58.6182 0001096 109.5916 312.4302 15.06383747  3584","NORAD_CAT_ID":"48685","CENTER_NAME":"EARTH","DECAY_DATE":null,"MEAN_ELEMENT_THEORY":"SGP4","OBJECT_TYPE":"PAYLOAD","INCLINATION":"53.0551","MEAN_MOTION_DDOT":"0.0000000000000","LAUNCH_DATE":"2021-05-26","MEAN_MOTION_DOT":"0.00014776","REV_AT_EPOCH":"358","RA_OF_ASC_NODE":"58.6182","ECCENTRICITY":"0.00010960","OBJECT_NAME":"STARLINK-2751","FILE":"3267514","CLASSIFICATION_TYPE":"U","OBJECT_ID":"2021-044AZ","ARG_OF_PERICENTER":"109.5916","REF_FRAME":"TEME","RCS_SIZE":"LARGE","PERIOD":"95.593","MEAN_ANOMALY":"312.4302","EPHEMERIS_TYPE":"0","APOAPSIS":"548.022","ELEMENT_SET_NO":"999","EPOCH":"2022-01-08T22:00:00.999936"},{"MEAN_MOTION_DOT":"0.00007397","REV_AT_EPOCH":"358","LAUNCH_DATE":"2021-05-26","CLASSIFICATION_TYPE":"U","FILE":"3267514","OBJECT_NAME":"STARLINK-2629","ECCENTRICITY":"0.00011680","RA_OF_ASC_NODE":"63.6211","PERIOD":"95.592","RCS_SIZE":"LARGE","REF_FRAME":"TEME","ARG_OF_PERICENTER":"69.9303","OBJECT_ID":"2021-044BA","EPOCH":"2022-01-08T22:00:00.999936","ELEMENT_SET_NO":"999","EPHEMERIS_TYPE":"0","APOAPSIS":"548.035","MEAN_ANOMALY":"144.5808","TLE_LINE1":"1 48686U 21044BA  22008.91667824  .00007397  00000-0  51499-3 0  9995","BSTAR":"0.00051499000000","TIME_SYSTEM":"UTC","COUNTRY_CODE":"US","MEAN_MOTION":"15.06395890","SEMIMAJOR_AXIS":"6925.361","GP_ID":"193493549","SITE":"AFETR","NORAD_CAT_ID":"48686","TLE_LINE2":"2 48686  53.0550  63.6211 0001168  69.9303 144.5808 15.06395890  3589","PERIAPSIS":"546.417","INCLINATION":"53.0550","MEAN_MOTION_DDOT":"0.0000000000000","OBJECT_TYPE":"PAYLOAD","MEAN_ELEMENT_THEORY":"SGP4","DECAY_DATE":null,"CENTER_NAME":"EARTH"},{"TIME_SYSTEM":"UTC","TLE_LINE1":"1 48687U 21044BB  22008.91667824  .00021675  00000-0  14698-2 0  9990","BSTAR":"0.00146980000000","COUNTRY_CODE":"US","MEAN_MOTION":"15.06393028","SITE":"AFETR","GP_ID":"193492297","SEMIMAJOR_AXIS":"6925.370","TLE_LINE2":"2 48687  53.0569  53.6234 0001065  85.4877 118.9295 15.06393028  3585","NORAD_CAT_ID":"48687","PERIAPSIS":"546.497","OBJECT_TYPE":"PAYLOAD","MEAN_ELEMENT_THEORY":"SGP4","INCLINATION":"53.0569","MEAN_MOTION_DDOT":"0.0000000000000","CENTER_NAME":"EARTH","DECAY_DATE":null,"LAUNCH_DATE":"2021-05-26","MEAN_MOTION_DOT":"0.00021675","REV_AT_EPOCH":"358","FILE":"3267514","OBJECT_NAME":"STARLINK-2627","CLASSIFICATION_TYPE":"U","RA_OF_ASC_NODE":"53.6234","ECCENTRICITY":"0.00010650","REF_FRAME":"TEME","RCS_SIZE":"LARGE","PERIOD":"95.593","OBJECT_ID":"2021-044BB","ARG_OF_PERICENTER":"85.4877","APOAPSIS":"547.972","EPHEMERIS_TYPE":"0","ELEMENT_SET_NO":"999","EPOCH":"2022-01-08T22:00:00.999936","MEAN_ANOMALY":"118.9295"},{"MEAN_ANOMALY":"76.8228","ELEMENT_SET_NO":"999","EPHEMERIS_TYPE":"0","APOAPSIS":"548.168","EPOCH":"2022-01-08T22:00:00.999936","OBJECT_ID":"2021-044BC","ARG_OF_PERICENTER":"107.6451","PERIOD":"95.594","RCS_SIZE":"LARGE","REF_FRAME":"TEME","ECCENTRICITY":"0.00012760","RA_OF_ASC_NODE":"53.6196","CLASSIFICATION_TYPE":"U","OBJECT_NAME":"STARLINK-2742","FILE":"3267514","MEAN_MOTION_DOT":"0.00009538","REV_AT_EPOCH":"358","LAUNCH_DATE":"2021-05-26","CENTER_NAME":"EARTH","DECAY_DATE":null,"MEAN_ELEMENT_THEORY":"SGP4","OBJECT_TYPE":"PAYLOAD","INCLINATION":"53.0550","MEAN_MOTION_DDOT":"0.0000000000000","PERIAPSIS":"546.401","NORAD_CAT_ID":"48688","TLE_LINE2":"2 48688  53.0550  53.6196 0001276 107.6451  76.8228 15.06376890  3588","SITE":"AFETR","GP_ID":"193492547","SEMIMAJOR_AXIS":"6925.419","MEAN_MOTION":"15.06376890","COUNTRY_CODE":"US","TLE_LINE1":"1 48688U 21044BC  22008.91667824  .00009538  00000-0  65876-3 0  9990","BSTAR":"0.00065876000000","TIME_SYSTEM":"UTC"},{"TLE_LINE2":"2 48689  53.0556  58.0421 0001208  88.2074 353.5118 15.05563552  3580","NORAD_CAT_ID":"48689","PERIAPSIS":"548.941","OBJECT_TYPE":"PAYLOAD","MEAN_ELEMENT_THEORY":"SGP4","INCLINATION":"53.0556","MEAN_MOTION_DDOT":"0.0000000000000","CENTER_NAME":"EARTH","DECAY_DATE":null,"TIME_SYSTEM":"UTC","TLE_LINE1":"1 48689U 21044BD  22008.91667824  .00015465  00000-0  10787-2 0  9997","BSTAR":"0.00107870000000","COUNTRY_CODE":"US","MEAN_MOTION":"15.05563552","SITE":"AFETR","GP_ID":"193493299","SEMIMAJOR_AXIS":"6927.913","REF_FRAME":"TEME","RCS_SIZE":"LARGE","PERIOD":"95.645","OBJECT_ID":"2021-044BD","ARG_OF_PERICENTER":"88.2074","APOAPSIS":"550.615","EPHEMERIS_TYPE":"0","ELEMENT_SET_NO":"999","EPOCH":"2022-01-08T22:00:00.999936","MEAN_ANOMALY":"353.5118","LAUNCH_DATE":"2021-05-26","MEAN_MOTION_DOT":"0.00015465","REV_AT_EPOCH":"358","OBJECT_NAME":"STARLINK-2617","FILE":"3267514","CLASSIFICATION_TYPE":"U","RA_OF_ASC_NODE":"58.0421","ECCENTRICITY":"0.00012080"},{"NORAD_CAT_ID":"48690","TLE_LINE2":"2 48690  53.0549  68.6222 0001260  93.1587  28.7328 15.06391338  3588","PERIAPSIS":"546.368","MEAN_ELEMENT_THEORY":"SGP4","OBJECT_TYPE":"PAYLOAD","INCLINATION":"53.0549","MEAN_MOTION_DDOT":"0.0000000000000","CENTER_NAME":"EARTH","DECAY_DATE":null,"TLE_LINE1":"1 48690U 21044BE  22008.91667824  .00000144  00000-0  28556-4 0  9992","BSTAR":"0.00002855600000","TIME_SYSTEM":"UTC","COUNTRY_CODE":"US","MEAN_MOTION":"15.06391338","SITE":"AFETR","GP_ID":"193493049","SEMIMAJOR_AXIS":"6925.375","RCS_SIZE":"LARGE","PERIOD":"95.593","REF_FRAME":"TEME","OBJECT_ID":"2021-044BE","ARG_OF_PERICENTER":"93.1587","ELEMENT_SET_NO":"999","EPHEMERIS_TYPE":"0","APOAPSIS":"548.113","EPOCH":"2022-01-08T22:00:00.999936","MEAN_ANOMALY":"28.7328","REV_AT_EPOCH":"358","MEAN_MOTION_DOT":"0.00000144","LAUNCH_DATE":"2021-05-26","CLASSIFICATION_TYPE":"U","FILE":"3267514","OBJECT_NAME":"STARLINK-2740","ECCENTRICITY":"0.00012600","RA_OF_ASC_NODE":"68.6222"},{"MEAN_ANOMALY":"195.5812","ELEMENT_SET_NO":"999","APOAPSIS":"548.009","EPHEMERIS_TYPE":"0","EPOCH":"2022-01-08T22:00:00.999936","OBJECT_ID":"2021-044BF","ARG_OF_PERICENTER":"73.8453","PERIOD":"95.592","RCS_SIZE":"LARGE","REF_FRAME":"TEME","ECCENTRICITY":"0.00011460","RA_OF_ASC_NODE":"63.5629","CLASSIFICATION_TYPE":"U","FILE":"3267514","OBJECT_NAME":"STARLINK-2750","MEAN_MOTION_DOT":"0.00007171","REV_AT_EPOCH":"358","LAUNCH_DATE":"2021-05-26","CENTER_NAME":"EARTH","DECAY_DATE":null,"OBJECT_TYPE":"PAYLOAD","MEAN_ELEMENT_THEORY":"SGP4","INCLINATION":"53.0587","MEAN_MOTION_DDOT":"0.0000000000000","PERIAPSIS":"546.422","NORAD_CAT_ID":"48691","TLE_LINE2":"2 48691  53.0587  63.5629 0001146  73.8453 195.5812 15.06399337  3584","GP_ID":"193491797","SITE":"AFETR","SEMIMAJOR_AXIS":"6925.351","MEAN_MOTION":"15.06399337","COUNTRY_CODE":"US","TLE_LINE1":"1 48691U 21044BF  22008.91667824  .00007171  00000-0  49985-3 0  9998","BSTAR":"0.00049985000000","TIME_SYSTEM":"UTC"},{"MEAN_MOTION_DOT":"0.00007069","REV_AT_EPOCH":"359","LAUNCH_DATE":"2021-05-26","CLASSIFICATION_TYPE":"U","OBJECT_NAME":"STARLINK-2752","FILE":"3267514","ECCENTRICITY":"0.00010550","RA_OF_ASC_NODE":"63.6237","PERIOD":"95.593","RCS_SIZE":"LARGE","REF_FRAME":"TEME","OBJECT_ID":"2021-044BG","ARG_OF_PERICENTER":"101.6563","ELEMENT_SET_NO":"999","APOAPSIS":"547.986","EPHEMERIS_TYPE":"0","EPOCH":"2022-01-08T22:00:00.999936","MEAN_ANOMALY":"312.9298","TLE_LINE1":"1 48692U 21044BG  22008.91667824  .00007069  00000-0  49315-3 0  9992","BSTAR":"0.00049315000000","TIME_SYSTEM":"UTC","COUNTRY_CODE":"US","MEAN_MOTION":"15.06386200","GP_ID":"193492047","SITE":"AFETR","SEMIMAJOR_AXIS":"6925.391","NORAD_CAT_ID":"48692","TLE_LINE2":"2 48692  53.0560  63.6237 0001055 101.6563 312.9298 15.06386200  3592","PERIAPSIS":"546.525","OBJECT_TYPE":"PAYLOAD","MEAN_ELEMENT_THEORY":"SGP4","MEAN_MOTION_DDOT":"0.0000000000000","INCLINATION":"53.0560","CENTER_NAME":"EARTH","DECAY_DATE":null}];
